{
  "type": "FeatureCollection",
  "features": [
    {
      "type": "Feature",
      "properties": {
        "norad_id": 25590,
        "name": "COSMOS 2361",
        "group": "musson",
        "lat": -47.135919385711595,
        "lon": -25.851095046691498,
        "alt_km": 982.2655634233424,
        "timestamp": "2025-12-15T19:00:45.626015+00:00",
        "meta_object_name": "COSMOS 2361",
        "meta_object_id": "1998-076A",
        "meta_epoch": "2025-12-14T22:33:35.993088",
        "meta_mean_motion": 13.73217718,
        "meta_eccentricity": 0.00300674,
        "meta_inclination": 82.934,
        "meta_ra_of_asc_node": 342.4589,
        "meta_arg_of_pericenter": 259.2217,
        "meta_mean_anomaly": 162.4401,
        "meta_ephemeris_type": 0,
        "meta_classification_type": "U",
        "meta_norad_cat_id": 25590,
        "meta_element_set_no": 999,
        "meta_rev_at_epoch": 35141,
        "meta_bstar": 7.3459132e-05,
        "meta_mean_motion_dot": 8.3e-07,
        "meta_mean_motion_ddot": 0,
        "tle_line1": "1 25590U 98076A   25348.93999992  .00000083  00000+0  73459-4 0  9994",
        "tle_line2": "2 25590  82.9340 342.4589 0030067 259.2217 162.4401 13.73217718351410"
      },
      "geometry": {
        "type": "Point",
        "coordinates": [
          -25.851095046691498,
          -47.135919385711595
        ]
      }
    },
    {
      "type": "Feature",
      "properties": {
        "norad_id": 26818,
        "name": "COSMOS 2378",
        "group": "musson",
        "lat": 34.45444088693156,
        "lon": 2.348176792216844,
        "alt_km": 1005.1515986571121,
        "timestamp": "2025-12-15T19:00:45.626037+00:00",
        "meta_object_name": "COSMOS 2378",
        "meta_object_id": "2001-023A",
        "meta_epoch": "2025-12-14T19:13:04.421568",
        "meta_mean_motion": 13.74142119,
        "meta_eccentricity": 0.00325282,
        "meta_inclination": 82.9272,
        "meta_ra_of_asc_node": 358.1966,
        "meta_arg_of_pericenter": 199.0718,
        "meta_mean_anomaly": 334.0428,
        "meta_ephemeris_type": 0,
        "meta_classification_type": "U",
        "meta_norad_cat_id": 26818,
        "meta_element_set_no": 999,
        "meta_rev_at_epoch": 22951,
        "meta_bstar": 5.2584304e-05,
        "meta_mean_motion_dot": 6.5e-07,
        "meta_mean_motion_ddot": 0,
        "tle_line1": "1 26818U 01023A   25348.80074562  .00000065  00000+0  52584-4 0  9993",
        "tle_line2": "2 26818  82.9272 358.1966 0032528 199.0718 334.0428 13.74142119229516"
      },
      "geometry": {
        "type": "Point",
        "coordinates": [
          2.348176792216844,
          34.45444088693156
        ]
      }
    },
    {
      "type": "Feature",
      "properties": {
        "norad_id": 27436,
        "name": "COSMOS 2389",
        "group": "musson",
        "lat": -71.48711031520672,
        "lon": 146.41200008395512,
        "alt_km": 1021.2225195299106,
        "timestamp": "2025-12-15T19:00:45.626050+00:00",
        "meta_object_name": "COSMOS 2389",
        "meta_object_id": "2002-026A",
        "meta_epoch": "2025-12-14T22:52:07.528224",
        "meta_mean_motion": 13.75154909,
        "meta_eccentricity": 0.00475619,
        "meta_inclination": 82.9505,
        "meta_ra_of_asc_node": 305.3462,
        "meta_arg_of_pericenter": 54.7328,
        "meta_mean_anomaly": 5.4523,
        "meta_ephemeris_type": 0,
        "meta_classification_type": "U",
        "meta_norad_cat_id": 27436,
        "meta_element_set_no": 999,
        "meta_rev_at_epoch": 18179,
        "meta_bstar": 6.1219189e-05,
        "meta_mean_motion_dot": 7.5e-07,
        "meta_mean_motion_ddot": 0,
        "tle_line1": "1 27436U 02026A   25348.95286491  .00000075  00000+0  61219-4 0  9992",
        "tle_line2": "2 27436  82.9505 305.3462 0047561  54.7328   5.4523 13.75154909181797"
      },
      "geometry": {
        "type": "Point",
        "coordinates": [
          146.41200008395512,
          -71.48711031520672
        ]
      }
    },
    {
      "type": "Feature",
      "properties": {
        "norad_id": 27818,
        "name": "COSMOS 2398",
        "group": "musson",
        "lat": 4.2208481726780676,
        "lon": 89.92567772724122,
        "alt_km": 985.884996556294,
        "timestamp": "2025-12-15T19:00:45.626062+00:00",
        "meta_object_name": "COSMOS 2398",
        "meta_object_id": "2003-023A",
        "meta_epoch": "2025-12-14T21:30:06.973056",
        "meta_mean_motion": 13.72385892,
        "meta_eccentricity": 0.00326389,
        "meta_inclination": 82.9485,
        "meta_ra_of_asc_node": 271.1094,
        "meta_arg_of_pericenter": 106.0133,
        "meta_mean_anomaly": 323.5985,
        "meta_ephemeris_type": 0,
        "meta_classification_type": "U",
        "meta_norad_cat_id": 27818,
        "meta_element_set_no": 999,
        "meta_rev_at_epoch": 12846,
        "meta_bstar": 3.6947691e-05,
        "meta_mean_motion_dot": 4.9e-07,
        "meta_mean_motion_ddot": 0,
        "tle_line1": "1 27818U 03023A   25348.89591404  .00000049  00000+0  36948-4 0  9992",
        "tle_line2": "2 27818  82.9485 271.1094 0032638 106.0133 323.5985 13.72385892128468"
      },
      "geometry": {
        "type": "Point",
        "coordinates": [
          89.92567772724122,
          4.2208481726780676
        ]
      }
    },
    {
      "type": "Feature",
      "properties": {
        "norad_id": 28380,
        "name": "COSMOS 2407",
        "group": "musson",
        "lat": 53.51651284939759,
        "lon": -139.74892102517597,
        "alt_km": 942.5903318326655,
        "timestamp": "2025-12-15T19:00:45.626073+00:00",
        "meta_object_name": "COSMOS 2407",
        "meta_object_id": "2004-028A",
        "meta_epoch": "2025-12-14T21:52:02.046720",
        "meta_mean_motion": 13.76313914,
        "meta_eccentricity": 0.004026,
        "meta_inclination": 82.9604,
        "meta_ra_of_asc_node": 211.2851,
        "meta_arg_of_pericenter": 48.953,
        "meta_mean_anomaly": 322.208,
        "meta_ephemeris_type": 0,
        "meta_classification_type": "U",
        "meta_norad_cat_id": 28380,
        "meta_element_set_no": 999,
        "meta_rev_at_epoch": 7453,
        "meta_bstar": 6.7806638e-05,
        "meta_mean_motion_dot": 8.2e-07,
        "meta_mean_motion_ddot": 0,
        "tle_line1": "1 28380U 04028A   25348.91113480  .00000082  00000+0  67807-4 0  9995",
        "tle_line2": "2 28380  82.9604 211.2851 0040260  48.9530 322.2080 13.76313914 74537"
      },
      "geometry": {
        "type": "Point",
        "coordinates": [
          -139.74892102517597,
          53.51651284939759
        ]
      }
    },
    {
      "type": "Feature",
      "properties": {
        "norad_id": 28521,
        "name": "COSMOS 2414",
        "group": "musson",
        "lat": 80.99796790561007,
        "lon": -126.27308275178336,
        "alt_km": 907.9362003084434,
        "timestamp": "2025-12-15T19:00:45.626084+00:00",
        "meta_object_name": "COSMOS 2414",
        "meta_object_id": "2005-002A",
        "meta_epoch": "2025-12-14T21:50:41.981568",
        "meta_mean_motion": 13.87903234,
        "meta_eccentricity": 0.00410136,
        "meta_inclination": 82.9489,
        "meta_ra_of_asc_node": 183.0187,
        "meta_arg_of_pericenter": 133.6041,
        "meta_mean_anomaly": 226.8538,
        "meta_ephemeris_type": 0,
        "meta_classification_type": "U",
        "meta_norad_cat_id": 28521,
        "meta_element_set_no": 999,
        "meta_rev_at_epoch": 5825,
        "meta_bstar": 7.3412594e-05,
        "meta_mean_motion_dot": 1.04e-06,
        "meta_mean_motion_ddot": 0,
        "tle_line1": "1 28521U 05002A   25348.91020812  .00000104  00000+0  73413-4 0  9996",
        "tle_line2": "2 28521  82.9489 183.0187 0041013 133.6041 226.8538 13.87903234 58259"
      },
      "geometry": {
        "type": "Point",
        "coordinates": [
          -126.27308275178336,
          80.99796790561007
        ]
      }
    },
    {
      "type": "Feature",
      "properties": {
        "norad_id": 32052,
        "name": "COSMOS 2429",
        "group": "musson",
        "lat": 77.0606100829673,
        "lon": 13.487761709966342,
        "alt_km": 955.1995655601177,
        "timestamp": "2025-12-15T19:00:45.626095+00:00",
        "meta_object_name": "COSMOS 2429",
        "meta_object_id": "2007-038A",
        "meta_epoch": "2025-12-14T16:26:18.580992",
        "meta_mean_motion": 13.75149534,
        "meta_eccentricity": 0.00391399,
        "meta_inclination": 82.9804,
        "meta_ra_of_asc_node": 341.8746,
        "meta_arg_of_pericenter": 32.5527,
        "meta_mean_anomaly": 327.8031,
        "meta_ephemeris_type": 0,
        "meta_classification_type": "U",
        "meta_norad_cat_id": 32052,
        "meta_element_set_no": 999,
        "meta_rev_at_epoch": 91629,
        "meta_bstar": 6.9252386e-05,
        "meta_mean_motion_dot": 8.2e-07,
        "meta_mean_motion_ddot": 0,
        "tle_line1": "1 32052U 07038A   25348.68493728  .00000082  00000+0  69252-4 0  9996",
        "tle_line2": "2 32052  82.9804 341.8746 0039139  32.5527 327.8031 13.75149534916290"
      },
      "geometry": {
        "type": "Point",
        "coordinates": [
          13.487761709966342,
          77.0606100829673
        ]
      }
    },
    {
      "type": "Feature",
      "properties": {
        "norad_id": 35635,
        "name": "COSMOS 2454",
        "group": "musson",
        "lat": 22.306216891281533,
        "lon": -16.57686519112463,
        "alt_km": 929.019349459094,
        "timestamp": "2025-12-15T19:00:45.626106+00:00",
        "meta_object_name": "COSMOS 2454",
        "meta_object_id": "2009-039A",
        "meta_epoch": "2025-12-14T22:02:52.324224",
        "meta_mean_motion": 13.89928845,
        "meta_eccentricity": 0.00204009,
        "meta_inclination": 82.9554,
        "meta_ra_of_asc_node": 166.9932,
        "meta_arg_of_pericenter": 67.9033,
        "meta_mean_anomaly": 40.8357,
        "meta_ephemeris_type": 0,
        "meta_classification_type": "U",
        "meta_norad_cat_id": 35635,
        "meta_element_set_no": 999,
        "meta_rev_at_epoch": 83180,
        "meta_bstar": 6.061045e-05,
        "meta_mean_motion_dot": 9.1e-07,
        "meta_mean_motion_ddot": 0,
        "tle_line1": "1 35635U 09039A   25348.91866116  .00000091  00000+0  60610-4 0  9999",
        "tle_line2": "2 35635  82.9554 166.9932 0020400  67.9033  40.8357 13.89928845831801"
      },
      "geometry": {
        "type": "Point",
        "coordinates": [
          -16.57686519112463,
          22.306216891281533
        ]
      }
    },
    {
      "type": "Feature",
      "properties": {
        "norad_id": 36519,
        "name": "COSMOS 2463",
        "group": "musson",
        "lat": -2.894707098143917,
        "lon": 24.112031744709867,
        "alt_km": 991.4286048486165,
        "timestamp": "2025-12-15T19:00:45.626117+00:00",
        "meta_object_name": "COSMOS 2463",
        "meta_object_id": "2010-017A",
        "meta_epoch": "2025-12-14T15:35:17.424672",
        "meta_mean_motion": 13.71649265,
        "meta_eccentricity": 0.00347608,
        "meta_inclination": 82.9612,
        "meta_ra_of_asc_node": 25.3093,
        "meta_arg_of_pericenter": 282.5486,
        "meta_mean_anomaly": 194.9131,
        "meta_ephemeris_type": 0,
        "meta_classification_type": "U",
        "meta_norad_cat_id": 36519,
        "meta_element_set_no": 999,
        "meta_rev_at_epoch": 78263,
        "meta_bstar": 4.5971433e-05,
        "meta_mean_motion_dot": 5.6e-07,
        "meta_mean_motion_ddot": 0,
        "tle_line1": "1 36519U 10017A   25348.64950723  .00000056  00000+0  45971-4 0  9991",
        "tle_line2": "2 36519  82.9612  25.3093 0034760 282.5486 194.9131 13.71649265782639"
      },
      "geometry": {
        "type": "Point",
        "coordinates": [
          24.112031744709867,
          -2.894707098143917
        ]
      }
    }
  ]
}